{
  "type": "FeatureCollection",
  "features": [
    {
      "type": "Feature",
      "properties": {
        "norad_id": 66998,
        "name": "2025-292F",
        "group": "last-30-days",
        "lat": 14.218530853955945,
        "lon": 64.32937938473886,
        "alt_km": 558.3454607503636,
        "timestamp": "2025-12-19T18:58:40.330362+00:00",
        "meta_object_name": "2025-292F",
        "meta_object_id": "2025-292F",
        "meta_epoch": "2025-12-19T06:08:52.150560",
        "meta_mean_motion": 15.04890352,
        "meta_eccentricity": 0.00146119,
        "meta_inclination": 97.6563,
        "meta_ra_of_asc_node": 65.7528,
        "meta_arg_of_pericenter": 253.4361,
        "meta_mean_anomaly": 106.5261,
        "meta_ephemeris_type": 0,
        "meta_classification_type": "U",
        "meta_norad_cat_id": 66998,
        "meta_element_set_no": 999,
        "meta_rev_at_epoch": 137,
        "meta_bstar": 0.00026681258,
        "meta_mean_motion_dot": 3.721e-05,
        "meta_mean_motion_ddot": 0,
        "tle_line1": "1 66998U 25292F   25353.25615915  .00003721  00000+0  26681-3 0  9998",
        "tle_line2": "2 66998  97.6563  65.7528 0014611 253.4361 106.5261 15.04890352  1375"
      },
      "geometry": {
        "type": "Point",
        "coordinates": [
          64.32937938473886,
          14.218530853955945
        ]
      }
    },
    {
      "type": "Feature",
      "properties": {
        "norad_id": 66999,
        "name": "2025-292G",
        "group": "last-30-days",
        "lat": 16.38680213367288,
        "lon": 64.0172504169312,
        "alt_km": 557.6455043398464,
        "timestamp": "2025-12-19T18:58:40.330371+00:00",
        "meta_object_name": "2025-292G",
        "meta_object_id": "2025-292G",
        "meta_epoch": "2025-12-19T06:08:19.188960",
        "meta_mean_motion": 15.04954352,
        "meta_eccentricity": 0.00141323,
        "meta_inclination": 97.6571,
        "meta_ra_of_asc_node": 65.7542,
        "meta_arg_of_pericenter": 255.5516,
        "meta_mean_anomaly": 104.4142,
        "meta_ephemeris_type": 0,
        "meta_classification_type": "U",
        "meta_norad_cat_id": 66999,
        "meta_element_set_no": 999,
        "meta_rev_at_epoch": 137,
        "meta_bstar": 0.00027604653,
        "meta_mean_motion_dot": 3.858e-05,
        "meta_mean_motion_ddot": 0,
        "tle_line1": "1 66999U 25292G   25353.25577765  .00003858  00000+0  27605-3 0  9997",
        "tle_line2": "2 66999  97.6571  65.7542 0014132 255.5516 104.4142 15.04954352  1370"
      },
      "geometry": {
        "type": "Point",
        "coordinates": [
          64.0172504169312,
          16.38680213367288
        ]
      }
    },
    {
      "type": "Feature",
      "properties": {
        "norad_id": 67000,
        "name": "2025-292H",
        "group": "last-30-days",
        "lat": 16.39526027187864,
        "lon": 64.0160781413695,
        "alt_km": 557.5132705585156,
        "timestamp": "2025-12-19T18:58:40.330381+00:00",
        "meta_object_name": "2025-292H",
        "meta_object_id": "2025-292H",
        "meta_epoch": "2025-12-17T15:50:27.314304",
        "meta_mean_motion": 15.04941506,
        "meta_eccentricity": 0.00140318,
        "meta_inclination": 97.6577,
        "meta_ra_of_asc_node": 64.1722,
        "meta_arg_of_pericenter": 261.5567,
        "meta_mean_anomaly": 98.4069,
        "meta_ephemeris_type": 0,
        "meta_classification_type": "U",
        "meta_norad_cat_id": 67000,
        "meta_element_set_no": 999,
        "meta_rev_at_epoch": 100,
        "meta_bstar": 0.00033244641,
        "meta_mean_motion_dot": 4.658e-05,
        "meta_mean_motion_ddot": 0,
        "tle_line1": "1 67000U 25292H   25351.66003836  .00004658  00000+0  33245-3 0  9993",
        "tle_line2": "2 67000  97.6577  64.1722 0014031 261.5567  98.4069 15.04941506  1001"
      },
      "geometry": {
        "type": "Point",
        "coordinates": [
          64.0160781413695,
          16.39526027187864
        ]
      }
    },
    {
      "type": "Feature",
      "properties": {
        "norad_id": 67001,
        "name": "2025-292J",
        "group": "last-30-days",
        "lat": -3.6454357237470583,
        "lon": 66.76613220495491,
        "alt_km": 560.9847302177668,
        "timestamp": "2025-12-19T18:58:40.330391+00:00",
        "meta_object_name": "2025-292J",
        "meta_object_id": "2025-292J",
        "meta_epoch": "2025-12-19T06:13:24.202560",
        "meta_mean_motion": 15.04369894,
        "meta_eccentricity": 0.00143187,
        "meta_inclination": 97.6564,
        "meta_ra_of_asc_node": 65.7487,
        "meta_arg_of_pericenter": 244.2004,
        "meta_mean_anomaly": 115.7745,
        "meta_ephemeris_type": 0,
        "meta_classification_type": "U",
        "meta_norad_cat_id": 67001,
        "meta_element_set_no": 999,
        "meta_rev_at_epoch": 137,
        "meta_bstar": 0.00029257854,
        "meta_mean_motion_dot": 4.029e-05,
        "meta_mean_motion_ddot": 0,
        "tle_line1": "1 67001U 25292J   25353.25930790  .00004029  00000+0  29258-3 0  9990",
        "tle_line2": "2 67001  97.6564  65.7487 0014318 244.2004 115.7745 15.04369894  1373"
      },
      "geometry": {
        "type": "Point",
        "coordinates": [
          66.76613220495491,
          -3.6454357237470583
        ]
      }
    },
    {
      "type": "Feature",
      "properties": {
        "norad_id": 67002,
        "name": "ZK-1A R/B",
        "group": "last-30-days",
        "lat": -45.605610456705506,
        "lon": 75.11161616577556,
        "alt_km": 274.0025008533785,
        "timestamp": "2025-12-19T18:58:40.330401+00:00",
        "meta_object_name": "ZK-1A R/B",
        "meta_object_id": "2025-292K",
        "meta_epoch": "2025-12-19T03:44:27.883392",
        "meta_mean_motion": 15.56639945,
        "meta_eccentricity": 0.02126234,
        "meta_inclination": 97.7229,
        "meta_ra_of_asc_node": 66.4567,
        "meta_arg_of_pericenter": 342.3441,
        "meta_mean_anomaly": 17.0499,
        "meta_ephemeris_type": 0,
        "meta_classification_type": "U",
        "meta_norad_cat_id": 67002,
        "meta_element_set_no": 999,
        "meta_rev_at_epoch": 139,
        "meta_bstar": 0.00068695857,
        "meta_mean_motion_dot": 0.00143202,
        "meta_mean_motion_ddot": 7.592293e-06,
        "tle_line1": "1 67002U 25292K   25353.15587828  .00143202  75923-5  68696-3 0  9998",
        "tle_line2": "2 67002  97.7229  66.4567 0212623 342.3441  17.0499 15.56639945  1390"
      },
      "geometry": {
        "type": "Point",
        "coordinates": [
          75.11161616577556,
          -45.605610456705506
        ]
      }
    },
    {
      "type": "Feature",
      "properties": {
        "norad_id": 67003,
        "name": "STARLINK-35660",
        "group": "last-30-days",
        "lat": 69.8243721596747,
        "lon": 40.777545719496885,
        "alt_km": 289.168145120374,
        "timestamp": "2025-12-19T18:58:40.330414+00:00",
        "meta_object_name": "STARLINK-35660",
        "meta_object_id": "2025-293A",
        "meta_epoch": "2025-12-19T06:00:02.000160",
        "meta_mean_motion": 15.94080106,
        "meta_eccentricity": 0.00039221,
        "meta_inclination": 69.9948,
        "meta_ra_of_asc_node": 304.9007,
        "meta_arg_of_pericenter": 270.5051,
        "meta_mean_anomaly": 321.0954,
        "meta_ephemeris_type": 0,
        "meta_classification_type": "U",
        "meta_norad_cat_id": 67003,
        "meta_element_set_no": 999,
        "meta_rev_at_epoch": 130,
        "meta_bstar": -0.0029090613,
        "meta_mean_motion_dot": -0.01075852,
        "meta_mean_motion_ddot": 0.00035328821,
        "tle_line1": "1 67003U 25293A   25353.25002315 -.01075852  35329-3 -29091-2 0  9991",
        "tle_line2": "2 67003  69.9948 304.9007 0003922 270.5051 321.0954 15.94080106  1304"
      },
      "geometry": {
        "type": "Point",
        "coordinates": [
          40.777545719496885,
          69.8243721596747
        ]
      }
    },
    {
      "type": "Feature",
      "properties": {
        "norad_id": 67004,
        "name": "STARLINK-35913",
        "group": "last-30-days",
        "lat": 69.48915939644446,
        "lon": 46.439116076792075,
        "alt_km": 289.0206785671171,
        "timestamp": "2025-12-19T18:58:40.330429+00:00",
        "meta_object_name": "STARLINK-35913",
        "meta_object_id": "2025-293B",
        "meta_epoch": "2025-12-19T06:00:02.000160",
        "meta_mean_motion": 15.94133495,
        "meta_eccentricity": 0.00038782,
        "meta_inclination": 69.9948,
        "meta_ra_of_asc_node": 304.8983,
        "meta_arg_of_pericenter": 269.6191,
        "meta_mean_anomaly": 323.8779,
        "meta_ephemeris_type": 0,
        "meta_classification_type": "U",
        "meta_norad_cat_id": 67004,
        "meta_element_set_no": 999,
        "meta_rev_at_epoch": 130,
        "meta_bstar": -0.0029150903,
        "meta_mean_motion_dot": -0.01081065,
        "meta_mean_motion_ddot": 0.00035665051,
        "tle_line1": "1 67004U 25293B   25353.25002315 -.01081065  35665-3 -29151-2 0  9995",
        "tle_line2": "2 67004  69.9948 304.8983 0003878 269.6191 323.8779 15.94133495  1306"
      },
      "geometry": {
        "type": "Point",
        "coordinates": [
          46.439116076792075,
          69.48915939644446
        ]
      }
    }
  ]
}